{
  "type": "FeatureCollection",
  "features": [
    {
      "type": "Feature",
      "properties": {
        "norad_id": 51444,
        "name": "CSG-2",
        "group": "resource",
        "lat": -71.18552540072885,
        "lon": -169.01120509720374,
        "alt_km": 630.7697742652963,
        "timestamp": "2025-12-11T15:53:39.200027+00:00",
        "meta_object_name": "CSG-2",
        "meta_object_id": "2022-008A",
        "meta_epoch": "2025-12-11T06:30:03.949056",
        "meta_mean_motion": 14.82161188,
        "meta_eccentricity": 0.00015113,
        "meta_inclination": 97.8807,
        "meta_ra_of_asc_node": 166.6159,
        "meta_arg_of_pericenter": 84.3047,
        "meta_mean_anomaly": 275.8338,
        "meta_ephemeris_type": 0,
        "meta_classification_type": "U",
        "meta_norad_cat_id": 51444,
        "meta_element_set_no": 999,
        "meta_rev_at_epoch": 20875,
        "meta_bstar": 0.0001202065,
        "meta_mean_motion_dot": 9.05e-06,
        "meta_mean_motion_ddot": 0,
        "tle_line1": "1 51444U 22008A   25345.27087904  .00000905  00000+0  12021-3 0  9998",
        "tle_line2": "2 51444  97.8807 166.6159 0001511  84.3047 275.8338 14.82161188208755"
      },
      "geometry": {
        "type": "Point",
        "coordinates": [
          -169.01120509720374,
          -71.18552540072885
        ]
      }
    },
    {
      "type": "Feature",
      "properties": {
        "norad_id": 52912,
        "name": "GAOFEN-12 03",
        "group": "resource",
        "lat": -33.382997288098046,
        "lon": 47.8212515904646,
        "alt_km": 638.1668803585317,
        "timestamp": "2025-12-11T15:53:39.200037+00:00",
        "meta_object_name": "GAOFEN-12 03",
        "meta_object_id": "2022-069A",
        "meta_epoch": "2025-12-11T06:48:59.536224",
        "meta_mean_motion": 14.79602839,
        "meta_eccentricity": 0.00022698,
        "meta_inclination": 97.8478,
        "meta_ra_of_asc_node": 232.6665,
        "meta_arg_of_pericenter": 63.0354,
        "meta_mean_anomaly": 297.109,
        "meta_ephemeris_type": 0,
        "meta_classification_type": "U",
        "meta_norad_cat_id": 52912,
        "meta_element_set_no": 999,
        "meta_rev_at_epoch": 18682,
        "meta_bstar": 0.00021576603,
        "meta_mean_motion_dot": 1.566e-05,
        "meta_mean_motion_ddot": 0,
        "tle_line1": "1 52912U 22069A   25345.28402241  .00001566  00000+0  21577-3 0  9992",
        "tle_line2": "2 52912  97.8478 232.6665 0002269  63.0354 297.1090 14.79602839186826"
      },
      "geometry": {
        "type": "Point",
        "coordinates": [
          47.8212515904646,
          -33.382997288098046
        ]
      }
    },
    {
      "type": "Feature",
      "properties": {
        "norad_id": 54754,
        "name": "SWOT",
        "group": "resource",
        "lat": 42.21738602213705,
        "lon": 96.94058544799299,
        "alt_km": 889.3226781936264,
        "timestamp": "2025-12-11T15:53:39.200048+00:00",
        "meta_object_name": "SWOT",
        "meta_object_id": "2022-173A",
        "meta_epoch": "2025-12-11T06:40:13.107936",
        "meta_mean_motion": 14.00174386,
        "meta_eccentricity": 3.286e-05,
        "meta_inclination": 77.6106,
        "meta_ra_of_asc_node": 288.9629,
        "meta_arg_of_pericenter": 117.1742,
        "meta_mean_anomaly": 242.9443,
        "meta_ephemeris_type": 0,
        "meta_classification_type": "U",
        "meta_norad_cat_id": 54754,
        "meta_element_set_no": 999,
        "meta_rev_at_epoch": 15285,
        "meta_bstar": 4.5392368e-05,
        "meta_mean_motion_dot": 6.4e-07,
        "meta_mean_motion_ddot": 0,
        "tle_line1": "1 54754U 22173A   25345.27792949  .00000064  00000+0  45392-4 0  9994",
        "tle_line2": "2 54754  77.6106 288.9629 0000328 117.1742 242.9443 14.00174386152857"
      },
      "geometry": {
        "type": "Point",
        "coordinates": [
          96.94058544799299,
          42.21738602213705
        ]
      }
    },
    {
      "type": "Feature",
      "properties": {
        "norad_id": 57654,
        "name": "GAOFEN-12 04",
        "group": "resource",
        "lat": 22.51356089512926,
        "lon": -101.86866226290344,
        "alt_km": 629.3671630323897,
        "timestamp": "2025-12-11T15:53:39.200058+00:00",
        "meta_object_name": "GAOFEN-12 04",
        "meta_object_id": "2023-123A",
        "meta_epoch": "2025-12-11T06:03:14.781888",
        "meta_mean_motion": 14.79693262,
        "meta_eccentricity": 0.00013547,
        "meta_inclination": 97.9116,
        "meta_ra_of_asc_node": 261.032,
        "meta_arg_of_pericenter": 73.7558,
        "meta_mean_anomaly": 286.3803,
        "meta_ephemeris_type": 0,
        "meta_classification_type": "U",
        "meta_norad_cat_id": 57654,
        "meta_element_set_no": 999,
        "meta_rev_at_epoch": 12483,
        "meta_bstar": 0.00031294608,
        "meta_mean_motion_dot": 2.299e-05,
        "meta_mean_motion_ddot": 0,
        "tle_line1": "1 57654U 23123A   25345.25225442  .00002299  00000+0  31295-3 0  9997",
        "tle_line2": "2 57654  97.9116 261.0320 0001354  73.7558 286.3803 14.79693262124831"
      },
      "geometry": {
        "type": "Point",
        "coordinates": [
          -101.86866226290344,
          22.51356089512926
        ]
      }
    },
    {
      "type": "Feature",
      "properties": {
        "norad_id": 59065,
        "name": "PARS 1",
        "group": "resource",
        "lat": -2.5355328056537063,
        "lon": 136.2398045343006,
        "alt_km": 449.24111425098,
        "timestamp": "2025-12-11T15:53:39.200068+00:00",
        "meta_object_name": "PARS 1",
        "meta_object_id": "2024-039Q",
        "meta_epoch": "2025-12-11T07:18:49.461696",
        "meta_mean_motion": 15.40941145,
        "meta_eccentricity": 0.00126066,
        "meta_inclination": 97.4637,
        "meta_ra_of_asc_node": 316.2073,
        "meta_arg_of_pericenter": 76.4937,
        "meta_mean_anomaly": 283.7713,
        "meta_ephemeris_type": 0,
        "meta_classification_type": "U",
        "meta_norad_cat_id": 59065,
        "meta_element_set_no": 999,
        "meta_rev_at_epoch": 9966,
        "meta_bstar": 0.00079197493,
        "meta_mean_motion_dot": 0.00032692,
        "meta_mean_motion_ddot": 0,
        "tle_line1": "1 59065U 24039Q   25345.30473914  .00032692  00000+0  79197-3 0  9990",
        "tle_line2": "2 59065  97.4637 316.2073 0012606  76.4937 283.7713 15.40941145 99661"
      },
      "geometry": {
        "type": "Point",
        "coordinates": [
          136.2398045343006,
          -2.5355328056537063
        ]
      }
    },
    {
      "type": "Feature",
      "properties": {
        "norad_id": 59371,
        "name": "RESURS-P 4",
        "group": "resource",
        "lat": -1.3714746645204143,
        "lon": -67.81096685829885,
        "alt_km": 472.2071447385333,
        "timestamp": "2025-12-11T15:53:39.200079+00:00",
        "meta_object_name": "RESURS-P 4",
        "meta_object_id": "2024-061A",
        "meta_epoch": "2025-12-11T06:29:42.557280",
        "meta_mean_motion": 15.32075262,
        "meta_eccentricity": 0.0001629,
        "meta_inclination": 97.2542,
        "meta_ra_of_asc_node": 291.6307,
        "meta_arg_of_pericenter": 52.7323,
        "meta_mean_anomaly": 307.4068,
        "meta_ephemeris_type": 0,
        "meta_classification_type": "U",
        "meta_norad_cat_id": 59371,
        "meta_element_set_no": 999,
        "meta_rev_at_epoch": 9498,
        "meta_bstar": 0.0003292804,
        "meta_mean_motion_dot": 0.00010125,
        "meta_mean_motion_ddot": 0,
        "tle_line1": "1 59371U 24061A   25345.27063145  .00010125  00000+0  32928-3 0  9990",
        "tle_line2": "2 59371  97.2542 291.6307 0001629  52.7323 307.4068 15.32075262 94985"
      },
      "geometry": {
        "type": "Point",
        "coordinates": [
          -67.81096685829885,
          -1.3714746645204143
        ]
      }
    },
    {
      "type": "Feature",
      "properties": {
        "norad_id": 59625,
        "name": "LEGION 1",
        "group": "resource",
        "lat": -74.03901339616547,
        "lon": 87.8218156876393,
        "alt_km": 521.6931810203669,
        "timestamp": "2025-12-11T15:53:39.200089+00:00",
        "meta_object_name": "LEGION 1",
        "meta_object_id": "2024-081A",
        "meta_epoch": "2025-12-11T05:08:33.751392",
        "meta_mean_motion": 15.16455976,
        "meta_eccentricity": 0.00040595,
        "meta_inclination": 97.5211,
        "meta_ra_of_asc_node": 59.8653,
        "meta_arg_of_pericenter": 324.6839,
        "meta_mean_anomaly": 35.4124,
        "meta_ephemeris_type": 0,
        "meta_classification_type": "U",
        "meta_norad_cat_id": 59625,
        "meta_element_set_no": 999,
        "meta_rev_at_epoch": 8904,
        "meta_bstar": 0.00041765429,
        "meta_mean_motion_dot": 8.063e-05,
        "meta_mean_motion_ddot": 0,
        "tle_line1": "1 59625U 24081A   25345.21427953  .00008063  00000+0  41765-3 0  9996",
        "tle_line2": "2 59625  97.5211  59.8653 0004059 324.6839  35.4124 15.16455976 89042"
      },
      "geometry": {
        "type": "Point",
        "coordinates": [
          87.8218156876393,
          -74.03901339616547
        ]
      }
    }
  ]
}